     2.100          NAVIGATION                              RINEX VERSION / TYPE
fic2rin                                 04/11/2012 00:06:17 PGM / RUN BY / DATE
                                                            END OF HEADER
 8 12  4 10 15 59 44.0  .994652509689D-06  .000000000000D+00  .000000000000D+00
     .500000000000D+01 -.720937500000D+02  .381373028575D-08 -.543297803837D+00
    -.394694507122D-05  .121578789549D-01  .405125319958D-05  .515369060135D+04
     .230384000000D+06  .299885869026D-06  .288617526152D+01  .484287738800D-07
     .998077073802D+00  .318937500000D+03 -.297449546905D+01 -.805069248651D-08
    -.341085636157D-09  .100000000000D+01  .168300000000D+04  .000000000000D+00
     .240000000000D+01  .000000000000D+00 -.465661287308D-08  .500000000000D+01
     .223206000000D+06  .400000000000D+01
15 12  4 10 15 59 44.0 -.914679840207D-04  .113686837722D-12  .000000000000D+00
     .220000000000D+02  .969687500000D+02  .504056710271D-08  .202601940514D+01
     .523775815964D-05  .439952628221D-02  .449270009995D-05  .515379946136D+04
     .230384000000D+06 -.447034835815D-07  .172018452811D+01  .145286321640D-06
     .945698153633D+00  .286500000000D+03  .723602672156D-01 -.848928218411D-08
     .821462788651D-10  .100000000000D+01  .168300000000D+04  .000000000000D+00
     .240000000000D+01  .000000000000D+00 -.102445483208D-07  .220000000000D+02
     .223206000000D+06  .400000000000D+01
 2 12  4 10 16  0  0.0  .386164058000D-03  .136424205266D-11  .000000000000D+00
     .610000000000D+02 -.190625000000D+02  .540843956893D-08  .154682882934D+01
    -.101141631603D-05  .111153384205D-01  .695139169693D-05  .515366966248D+04
     .230400000000D+06 -.372529029846D-07 -.369699437683D+00  .201165676117D-06
     .938911013961D+00  .232375000000D+03 -.281662954921D+01 -.850035407387D-08
    -.366800993019D-09  .100000000000D+01  .168300000000D+04  .000000000000D+00
     .240000000000D+01  .000000000000D+00 -.172294676304D-07  .610000000000D+02
     .223206000000D+06  .400000000000D+01
 3 12  4 10 16  0  0.0  .341469421983D-04  .488853402203D-11  .000000000000D+00
     .720000000000D+02  .115625000000D+01  .532379318593D-08  .170421586149D+01
    -.689178705215D-07  .151239400730D-01  .851601362228D-05  .515370832634D+04
     .230400000000D+06 -.227242708206D-06 -.153315875959D+01 -.270083546638D-06
     .930526626683D+00  .200593750000D+03  .117988463255D+01 -.842677958062D-08
     .635026451401D-09  .100000000000D+01  .168300000000D+04  .000000000000D+00
     .340000000000D+01  .000000000000D+00 -.419095158577D-08  .720000000000D+02
     .223206000000D+06  .400000000000D+01
 4 12  4 10 16  0  0.0  .149368308485D-03  .113686837722D-10  .000000000000D+00
     .990000000000D+02 -.199062500000D+02  .533665086436D-08 -.161000182180D+01
    -.102445483208D-05  .100082603749D-01  .641122460365D-05  .515357688522D+04
     .230400000000D+06  .162050127983D-06 -.352740754417D+00 -.223517417908D-07
     .937983362978D+00  .235437500000D+03  .845644943729D+00 -.832534678411D-08
    -.146434671020D-09  .100000000000D+01  .168300000000D+04  .000000000000D+00
     .240000000000D+01  .000000000000D+00 -.605359673500D-08  .990000000000D+02
     .223206000000D+06  .400000000000D+01
 5 12  4 10 16  0  0.0 -.303465873003D-03 -.409272615798D-11  .000000000000D+00
     .620000000000D+02  .593750000000D+02  .467126600555D-08 -.274256520625D+01
     .304542481899D-05  .268565223087D-02  .111665576696D-04  .515364156151D+04
     .230400000000D+06 -.614672899246D-07  .693027912514D+00 -.204890966415D-07
     .951650218703D+00  .161437500000D+03  .271042884447D+00 -.795425989828D-08
    -.219294848796D-09  .100000000000D+01  .168300000000D+04  .000000000000D+00
     .240000000000D+01  .000000000000D+00 -.102445483208D-07  .620000000000D+02
     .223206000000D+06  .400000000000D+01
 6 12  4 10 16  0  0.0  .310451723635D-04 -.909494701773D-12  .000000000000D+00
     .390000000000D+02  .115937500000D+02  .515271463125D-08 -.266582634623D+01
     .828877091408D-06  .723895197734D-02  .804290175438D-05  .515368911743D+04
     .230400000000D+06 -.353902578354D-07 -.145686794163D+01  .135973095894D-06
     .937428541056D+00  .210843750000D+03 -.578237912490D+00 -.822498546080D-08
     .626811823514D-09  .100000000000D+01  .168300000000D+04  .000000000000D+00
     .240000000000D+01  .000000000000D+00 -.512227416039D-08  .390000000000D+02
     .223206000000D+06  .400000000000D+01
 7 12  4 10 16  0  0.0  .715111382306D-04  .318323145621D-11  .000000000000D+00
     .460000000000D+02 -.691250000000D+02  .434018078595D-08  .109391212034D+00
    -.381283462048D-05  .521207088605D-02  .278837978840D-05  .515361701012D+04
     .230400000000D+06  .298023223877D-07  .280389229600D+01  .819563865662D-07
     .975910336343D+00  .331781250000D+03 -.302405400897D+01 -.836820571221D-08
    -.350728894981D-09  .100000000000D+01  .168300000000D+04  .000000000000D+00
     .240000000000D+01  .000000000000D+00 -.107102096081D-07  .460000000000D+02
     .223206000000D+06  .400000000000D+01
 9 12  4 10 16  0  0.0  .150592997670D-03  .261479726760D-11  .000000000000D+00
     .400000000000D+02 -.600000000000D+02  .420446084696D-08 -.574241900554D+00
    -.304542481899D-05  .173809292028D-01  .373274087906D-05  .515362799072D+04
     .230400000000D+06 -.171363353729D-06  .277782197084D+01  .447034835815D-07
     .984656819252D+00  .319687500000D+03  .160746885961D+01 -.845785230350D-08
    -.200008331150D-09  .100000000000D+01  .168300000000D+04  .000000000000D+00
     .240000000000D+01  .000000000000D+00 -.558793544769D-08  .400000000000D+02
     .223206000000D+06  .400000000000D+01
10 12  4 10 16  0  0.0 -.350056216121D-04 -.125055521494D-11  .000000000000D+00
     .650000000000D+02  .640937500000D+02  .469090968093D-08 -.240909858917D+01
     .311993062496D-05  .112396880286D-01  .112708657980D-04  .515369351578D+04
     .230400000000D+06  .745058059692D-07  .714857374210D+00 -.132247805595D-06
     .946525411863D+00  .152781250000D+03  .748416913906D+00 -.789568602987D-08
    -.140005831805D-09  .100000000000D+01  .168300000000D+04  .000000000000D+00
     .485000000000D+01  .000000000000D+00 -.232830643654D-08  .650000000000D+02
     .223206000000D+06  .400000000000D+01
11 12  4 10 16  0  0.0 -.250167213380D-03 -.375166564481D-11  .000000000000D+00
     .570000000000D+02 -.158437500000D+02  .674563812576D-08  .237297535138D+00
    -.860542058945D-06  .128239517799D-01  .566430389881D-05  .515366653633D+04
     .230400000000D+06 -.135973095894D-06 -.623430465570D+00  .156462192535D-06
     .888112959641D+00  .233312500000D+03  .103774010961D+01 -.929788729433D-08
    -.108218793461D-09  .100000000000D+01  .168300000000D+04  .000000000000D+00
     .240000000000D+01  .000000000000D+00 -.116415321827D-07  .570000000000D+02
     .223206000000D+06  .400000000000D+01
12 12  4 10 16  0  0.0  .627520494163D-04  .204636307899D-11  .000000000000D+00
     .920000000000D+02 -.738750000000D+02  .389194782953D-08 -.539768334032D-01
    -.397861003876D-05  .397817371413D-02  .103116035461D-04  .515353940392D+04
     .230400000000D+06  .800937414169D-07 -.242371264486D+01  .186264514923D-07
     .979321754511D+00  .190750000000D+03 -.118151218158D-01 -.776282335275D-08
     .107861635727D-09  .100000000000D+01  .168300000000D+04  .000000000000D+00
     .240000000000D+01  .000000000000D+00 -.121071934700D-07  .920000000000D+02
     .223206000000D+06  .400000000000D+01
13 12  4 10 16  0  0.0  .214260071516D-03 -.227373675443D-11  .000000000000D+00
     .330000000000D+02  .104906250000D+03  .411374278247D-08  .243952245759D+01
     .552460551262D-05  .494526524562D-02  .412389636040D-05  .515369437408D+04
     .230400000000D+06  .106170773506D-06  .183289044626D+01 -.100582838058D-06
     .985955760306D+00  .308312500000D+03  .195839344512D+01 -.810069456930D-08
     .106075847056D-09  .100000000000D+01  .168300000000D+04  .000000000000D+00
     .240000000000D+01  .000000000000D+00 -.111758708954D-07  .330000000000D+02
     .223206000000D+06  .400000000000D+01
14 12  4 10 16  0  0.0  .199729576707D-03  .113686837722D-11  .000000000000D+00
     .990000000000D+02  .103812500000D+03  .422410452234D-08  .253142979731D+01
     .526942312717D-05  .617724726908D-02  .353530049324D-05  .515357820129D+04
     .230400000000D+06  .894069671631D-07  .180650046473D+01 -.104308128357D-06
     .978819626898D+00  .319218750000D+03 -.205911582155D+01 -.805997858760D-08
     .133576992589D-09  .100000000000D+01  .168300000000D+04  .000000000000D+00
     .240000000000D+01  .000000000000D+00 -.884756445885D-08  .990000000000D+02
     .223206000000D+06  .400000000000D+01
16 12  4 10 16  0  0.0 -.230834353715D-03 -.147792889038D-11  .000000000000D+00
     .140000000000D+02 -.950625000000D+02  .374622747398D-08 -.240097015990D+01
    -.486336648464D-05  .659991404973D-02  .116042792797D-04  .515365504456D+04
     .230400000000D+06 -.614672899246D-07 -.240559672463D+01 -.130385160446D-07
     .980164753739D+00  .167531250000D+03 -.525557942798D-01 -.761817447040D-08
     .241795786051D-09  .100000000000D+01  .168300000000D+04  .000000000000D+00
     .240000000000D+01  .000000000000D+00 -.977888703346D-08  .140000000000D+02
     .223206000000D+06  .400000000000D+01
17 12  4 10 16  0  0.0  .136792194098D-03 -.261479726760D-11  .000000000000D+00
     .740000000000D+02 -.937500000000D+00  .451590239118D-08  .289684354480D+01
     .149011611938D-07  .731489912141D-02  .780634582043D-05  .515365913391D+04
     .230400000000D+06  .260770320892D-07 -.136465951728D+01 -.113621354103D-06
     .962320952370D+00  .229250000000D+03 -.230886622593D+01 -.784711257802D-08
     .520735976458D-09  .100000000000D+01  .168300000000D+04  .000000000000D+00
     .240000000000D+01  .000000000000D+00 -.107102096081D-07  .740000000000D+02
     .223206000000D+06  .400000000000D+01
